{
  "type": "FeatureCollection",
  "features": [
    {
      "type": "Feature",
      "properties": {
        "norad_id": 66530,
        "name": "STARLINK-35961",
        "group": "last-30-days",
        "lat": 33.92468286039308,
        "lon": 149.1924534213283,
        "alt_km": 343.03449247794833,
        "timestamp": "2025-12-04T10:51:48.876467+00:00",
        "meta_object_name": "STARLINK-35961",
        "meta_object_id": "2025-265Q",
        "meta_epoch": "2025-12-04T04:00:03.000096",
        "meta_mean_motion": 15.75188865,
        "meta_eccentricity": 0.0001226,
        "meta_inclination": 42.9999,
        "meta_ra_of_asc_node": 104.723,
        "meta_arg_of_pericenter": 266.0148,
        "meta_mean_anomaly": 326.1142,
        "meta_ephemeris_type": 0,
        "meta_classification_type": "U",
        "meta_norad_cat_id": 66530,
        "meta_element_set_no": 999,
        "meta_rev_at_epoch": 361,
        "meta_bstar": -0.014468,
        "meta_mean_motion_dot": -0.01939184,
        "meta_mean_motion_ddot": 0,
        "tle_line1": "1 66530U 25265Q   25338.16670139 -.01939184  00000+0 -14468-1 0  9994",
        "tle_line2": "2 66530  42.9999 104.7230 0001226 266.0148 326.1142 15.75188865  3612"
      },
      "geometry": {
        "type": "Point",
        "coordinates": [
          149.1924534213283,
          33.92468286039308
        ]
      }
    },
    {
      "type": "Feature",
      "properties": {
        "norad_id": 66531,
        "name": "STARLINK-35960",
        "group": "last-30-days",
        "lat": 34.809486474106656,
        "lon": 151.2396173510195,
        "alt_km": 343.1584936332865,
        "timestamp": "2025-12-04T10:51:48.876478+00:00",
        "meta_object_name": "STARLINK-35960",
        "meta_object_id": "2025-265R",
        "meta_epoch": "2025-12-04T04:00:03.000096",
        "meta_mean_motion": 15.75172109,
        "meta_eccentricity": 0.0001447,
        "meta_inclination": 43,
        "meta_ra_of_asc_node": 104.7179,
        "meta_arg_of_pericenter": 256.1672,
        "meta_mean_anomaly": 337.8824,
        "meta_ephemeris_type": 0,
        "meta_classification_type": "U",
        "meta_norad_cat_id": 66531,
        "meta_element_set_no": 999,
        "meta_rev_at_epoch": 361,
        "meta_bstar": -0.014291,
        "meta_mean_motion_dot": -0.01917697,
        "meta_mean_motion_ddot": 0,
        "tle_line1": "1 66531U 25265R   25338.16670139 -.01917697  00000+0 -14291-1 0  9994",
        "tle_line2": "2 66531  43.0000 104.7179 0001447 256.1672 337.8824 15.75172109  3617"
      },
      "geometry": {
        "type": "Point",
        "coordinates": [
          151.2396173510195,
          34.809486474106656
        ]
      }
    },
    {
      "type": "Feature",
      "properties": {
        "norad_id": 66532,
        "name": "STARLINK-35914",
        "group": "last-30-days",
        "lat": 35.651178676100905,
        "lon": 153.31182299954216,
        "alt_km": 343.02653483408994,
        "timestamp": "2025-12-04T10:51:48.876488+00:00",
        "meta_object_name": "STARLINK-35914",
        "meta_object_id": "2025-265S",
        "meta_epoch": "2025-12-04T04:00:03.000096",
        "meta_mean_motion": 15.75129504,
        "meta_eccentricity": 0.0001396,
        "meta_inclination": 42.9997,
        "meta_ra_of_asc_node": 104.7134,
        "meta_arg_of_pericenter": 250.9147,
        "meta_mean_anomaly": 345.0494,
        "meta_ephemeris_type": 0,
        "meta_classification_type": "U",
        "meta_norad_cat_id": 66532,
        "meta_element_set_no": 999,
        "meta_rev_at_epoch": 361,
        "meta_bstar": -0.01378,
        "meta_mean_motion_dot": -0.01854968,
        "meta_mean_motion_ddot": 0,
        "tle_line1": "1 66532U 25265S   25338.16670139 -.01854968  00000+0 -13780-1 0  9998",
        "tle_line2": "2 66532  42.9997 104.7134 0001396 250.9147 345.0494 15.75129504  3619"
      },
      "geometry": {
        "type": "Point",
        "coordinates": [
          153.31182299954216,
          35.651178676100905
        ]
      }
    },
    {
      "type": "Feature",
      "properties": {
        "norad_id": 66533,
        "name": "STARLINK-35707",
        "group": "last-30-days",
        "lat": 36.46823036097763,
        "lon": 155.4576826845659,
        "alt_km": 342.70029737163986,
        "timestamp": "2025-12-04T10:51:48.876498+00:00",
        "meta_object_name": "STARLINK-35707",
        "meta_object_id": "2025-265T",
        "meta_epoch": "2025-12-04T04:00:03.000096",
        "meta_mean_motion": 15.75131191,
        "meta_eccentricity": 0.0001237,
        "meta_inclination": 42.9999,
        "meta_ra_of_asc_node": 104.7086,
        "meta_arg_of_pericenter": 263.0217,
        "meta_mean_anomaly": 334.8554,
        "meta_ephemeris_type": 0,
        "meta_classification_type": "U",
        "meta_norad_cat_id": 66533,
        "meta_element_set_no": 999,
        "meta_rev_at_epoch": 361,
        "meta_bstar": -0.013761,
        "meta_mean_motion_dot": -0.01852786,
        "meta_mean_motion_ddot": 0,
        "tle_line1": "1 66533U 25265T   25338.16670139 -.01852786  00000+0 -13761-1 0  9994",
        "tle_line2": "2 66533  42.9999 104.7086 0001237 263.0217 334.8554 15.75131191  3613"
      },
      "geometry": {
        "type": "Point",
        "coordinates": [
          155.4576826845659,
          36.46823036097763
        ]
      }
    },
    {
      "type": "Feature",
      "properties": {
        "norad_id": 66534,
        "name": "STARLINK-35976",
        "group": "last-30-days",
        "lat": 37.259567451124816,
        "lon": 157.68853098532912,
        "alt_km": 342.8045429614658,
        "timestamp": "2025-12-04T10:51:48.876508+00:00",
        "meta_object_name": "STARLINK-35976",
        "meta_object_id": "2025-265U",
        "meta_epoch": "2025-12-04T04:00:03.000096",
        "meta_mean_motion": 15.75157715,
        "meta_eccentricity": 0.0001719,
        "meta_inclination": 43.0002,
        "meta_ra_of_asc_node": 104.7043,
        "meta_arg_of_pericenter": 275.3814,
        "meta_mean_anomaly": 324.4396,
        "meta_ephemeris_type": 0,
        "meta_classification_type": "U",
        "meta_norad_cat_id": 66534,
        "meta_element_set_no": 999,
        "meta_rev_at_epoch": 361,
        "meta_bstar": -0.014305,
        "meta_mean_motion_dot": -0.01918457,
        "meta_mean_motion_ddot": 0,
        "tle_line1": "1 66534U 25265U   25338.16670139 -.01918457  00000+0 -14305-1 0  9998",
        "tle_line2": "2 66534  43.0002 104.7043 0001719 275.3814 324.4396 15.75157715  3617"
      },
      "geometry": {
        "type": "Point",
        "coordinates": [
          157.68853098532912,
          37.259567451124816
        ]
      }
    },
    {
      "type": "Feature",
      "properties": {
        "norad_id": 66535,
        "name": "STARLINK-35514",
        "group": "last-30-days",
        "lat": 37.98606247423546,
        "lon": 159.895775394344,
        "alt_km": 342.591301179501,
        "timestamp": "2025-12-04T10:51:48.876518+00:00",
        "meta_object_name": "STARLINK-35514",
        "meta_object_id": "2025-265V",
        "meta_epoch": "2025-12-04T04:00:03.000096",
        "meta_mean_motion": 15.75116612,
        "meta_eccentricity": 0.000163,
        "meta_inclination": 43.0003,
        "meta_ra_of_asc_node": 104.6992,
        "meta_arg_of_pericenter": 278.6463,
        "meta_mean_anomaly": 323.087,
        "meta_ephemeris_type": 0,
        "meta_classification_type": "U",
        "meta_norad_cat_id": 66535,
        "meta_element_set_no": 999,
        "meta_rev_at_epoch": 361,
        "meta_bstar": -0.013765,
        "meta_mean_motion_dot": -0.01852563,
        "meta_mean_motion_ddot": 0,
        "tle_line1": "1 66535U 25265V   25338.16670139 -.01852563  00000+0 -13765-1 0  9993",
        "tle_line2": "2 66535  43.0003 104.6992 0001630 278.6463 323.0870 15.75116612  3612"
      },
      "geometry": {
        "type": "Point",
        "coordinates": [
          159.895775394344,
          37.98606247423546
        ]
      }
    },
    {
      "type": "Feature",
      "properties": {
        "norad_id": 66536,
        "name": "STARLINK-35640",
        "group": "last-30-days",
        "lat": 38.671371272684745,
        "lon": 162.1506787725584,
        "alt_km": 342.3328254971593,
        "timestamp": "2025-12-04T10:51:48.876530+00:00",
        "meta_object_name": "STARLINK-35640",
        "meta_object_id": "2025-265W",
        "meta_epoch": "2025-12-04T04:00:03.000096",
        "meta_mean_motion": 15.75141499,
        "meta_eccentricity": 9.95e-05,
        "meta_inclination": 43.0002,
        "meta_ra_of_asc_node": 104.6946,
        "meta_arg_of_pericenter": 256.2928,
        "meta_mean_anomaly": 347.3342,
        "meta_ephemeris_type": 0,
        "meta_classification_type": "U",
        "meta_norad_cat_id": 66536,
        "meta_element_set_no": 999,
        "meta_rev_at_epoch": 359,
        "meta_bstar": -0.013911,
        "meta_mean_motion_dot": -0.01870806,
        "meta_mean_motion_ddot": 0,
        "tle_line1": "1 66536U 25265W   25338.16670139 -.01870806  00000+0 -13911-1 0  9997",
        "tle_line2": "2 66536  43.0002 104.6946 0000995 256.2928 347.3342 15.75141499  3593"
      },
      "geometry": {
        "type": "Point",
        "coordinates": [
          162.1506787725584,
          38.671371272684745
        ]
      }
    }
  ]
}